{
  "norad_id": 65099,
  "name": "STARLINK-34815",
  "history": [
    {
      "epoch": "2026-03-28T20:24:42.500160",
      "apogee_km": 475.8652778396636,
      "perigee_km": 474.4543210945885,
      "latitude_deg": 48.896132860211075,
      "longitude_deg": 51.54722239985131,
      "semi_major_axis_km": 6853.296799467125,
      "eccentricity": 0.00010294,
      "inclination_deg": 53.1592,
      "raan_deg": 297.6439,
      "arg_perigee_deg": 85.8598,
      "mean_anomaly_deg": 274.252,
      "mean_motion_rev_day": 15.30218511
    }
  ]
}