{"fetched_at":"2026-03-30T06:02:59Z","count":15439,"tles":[{"name":"STARLINK-34815","line1":"1 65099U 25167X   26087.85049190  .00027531  00000+0  93767-3 0  9991","line2":"2 65099  53.1592 297.6439 0001029  85.8598 274.2520 15.30218511 36414","category":"Starlink"}]}